{
  "type": "Feature",
  "properties": {
    "trailId": "consolation-lakes",
    "trailName": "Consolation Lakes",
    "source": "way 377377356",
    "osmRelationId": null
  },
  "geometry": {
    "type": "LineString",
    "coordinates": [
      [
        -116.2316128,
        51.3624851
      ],
      [
        -116.2332831,
        51.3621233
      ],
      [
        -116.234406,
        51.3618516
      ],
      [
        -116.2350657,
        51.3618604
      ],
      [
        -116.2356973,
        51.3618779
      ],
      [
        -116.2362588,
        51.3619743
      ],
      [
        -116.2368202,
        51.3622022
      ],
      [
        -116.2373536,
        51.362395
      ],
      [
        -116.2378028,
        51.362544
      ],
      [
        -116.2383923,
        51.3629033
      ],
      [
        -116.2389818,
        51.3629997
      ],
      [
        -116.2394731,
        51.3630961
      ],
      [
        -116.2399784,
        51.3632013
      ],
      [
        -116.2406381,
        51.3633503
      ],
      [
        -116.2408767,
        51.363473
      ],
      [
        -116.2412136,
        51.3637709
      ],
      [
        -116.2414943,
        51.3642968
      ],
      [
        -116.2417891,
        51.3651644
      ],
      [
        -116.2419716,
        51.3656288
      ],
      [
        -116.2420417,
        51.3661021
      ],
      [
        -116.242154,
        51.3663562
      ],
      [
        -116.2424769,
        51.3667944
      ],
      [
        -116.2425541,
        51.3671734
      ],
      [
        -116.2426734,
        51.3675151
      ],
      [
        -116.2426488,
        51.3676904
      ],
      [
        -116.242733,
        51.3679204
      ],
      [
        -116.2428348,
        51.3681198
      ],
      [
        -116.2429927,
        51.3684528
      ],
      [
        -116.2431225,
        51.368696
      ],
      [
        -116.2431682,
        51.3689786
      ],
      [
        -116.2432173,
        51.3691516
      ],
      [
        -116.2433015,
        51.3693291
      ],
      [
        -116.2434875,
        51.3696533
      ],
      [
        -116.2436629,
        51.3698636
      ],
      [
        -116.2437998,
        51.3700695
      ],
      [
        -116.2438945,
        51.3702996
      ],
      [
        -116.2440033,
        51.3705668
      ],
      [
        -116.2442103,
        51.3707048
      ],
      [
        -116.2444349,
        51.3708406
      ],
      [
        -116.2447472,
        51.371029
      ],
      [
        -116.2451683,
        51.3712766
      ],
      [
        -116.2455087,
        51.3714737
      ],
      [
        -116.2460759,
        51.3721317
      ],
      [
        -116.246463,
        51.3726118
      ],
      [
        -116.2467359,
        51.3730858
      ],
      [
        -116.2471528,
        51.3737952
      ],
      [
        -116.2473661,
        51.3741639
      ],
      [
        -116.2475696,
        51.3744179
      ],
      [
        -116.2477731,
        51.3745635
      ],
      [
        -116.2481006,
        51.374833
      ],
      [
        -116.2482544,
        51.3750095
      ],
      [
        -116.2482842,
        51.3751644
      ],
      [
        -116.2483934,
        51.3755083
      ],
      [
        -116.2485125,
        51.3756756
      ],
      [
        -116.2487408,
        51.3759543
      ],
      [
        -116.2490336,
        51.3762145
      ],
      [
        -116.2492916,
        51.3765832
      ],
      [
        -116.2494256,
        51.3768341
      ],
      [
        -116.2495001,
        51.3770819
      ],
      [
        -116.2495943,
        51.3772275
      ],
      [
        -116.2496539,
        51.3773607
      ],
      [
        -116.2499913,
        51.3778687
      ],
      [
        -116.250165,
        51.3780576
      ],
      [
        -116.2502891,
        51.3781815
      ],
      [
        -116.2503933,
        51.378293
      ],
      [
        -116.2503784,
        51.3784045
      ],
      [
        -116.2503735,
        51.378516
      ],
      [
        -116.2503387,
        51.3786276
      ],
      [
        -116.2502792,
        51.378705
      ],
      [
        -116.2501551,
        51.3788351
      ],
      [
        -116.2501303,
        51.3789156
      ],
      [
        -116.250175,
        51.3789621
      ],
      [
        -116.2501501,
        51.379086
      ],
      [
        -116.2502593,
        51.3793431
      ],
      [
        -116.2503139,
        51.3794856
      ],
      [
        -116.2502593,
        51.3797272
      ],
      [
        -116.2501402,
        51.3798975
      ],
      [
        -116.2500013,
        51.3799471
      ],
      [
        -116.2496886,
        51.3800307
      ],
      [
        -116.2494504,
        51.3800803
      ],
      [
        -116.2491477,
        51.3801918
      ],
      [
        -116.248979,
        51.380294
      ],
      [
        -116.248716,
        51.3803033
      ],
      [
        -116.2484381,
        51.3802878
      ],
      [
        -116.2482147,
        51.380263
      ],
      [
        -116.2480907,
        51.3802382
      ],
      [
        -116.2478227,
        51.3802011
      ],
      [
        -116.2473016,
        51.3799719
      ],
      [
        -116.2470833,
        51.3797984
      ],
      [
        -116.2468848,
        51.3796838
      ],
      [
        -116.2465473,
        51.3795568
      ],
      [
        -116.2462496,
        51.3794825
      ],
      [
        -116.2458724,
        51.3794422
      ],
      [
        -116.2455846,
        51.3794577
      ],
      [
        -116.2453067,
        51.3794701
      ],
      [
        -116.2447211,
        51.3795289
      ],
      [
        -116.2445226,
        51.3795847
      ],
      [
        -116.2444035,
        51.3796621
      ],
      [
        -116.2443042,
        51.3798108
      ],
      [
        -116.2442248,
        51.3800059
      ],
      [
        -116.2440462,
        51.380136
      ],
      [
        -116.2437584,
        51.3802227
      ],
      [
        -116.2434953,
        51.3802816
      ],
      [
        -116.2431678,
        51.3803745
      ],
      [
        -116.242617,
        51.3805263
      ],
      [
        -116.2422597,
        51.3806254
      ],
      [
        -116.2420314,
        51.3807214
      ],
      [
        -116.2417039,
        51.3808918
      ],
      [
        -116.2413317,
        51.3810776
      ],
      [
        -116.2410587,
        51.3812108
      ],
      [
        -116.2407907,
        51.3813471
      ],
      [
        -116.2405376,
        51.3814369
      ],
      [
        -116.2401754,
        51.3816258
      ],
      [
        -116.2399719,
        51.3817714
      ],
      [
        -116.2397982,
        51.381917
      ],
      [
        -116.2396047,
        51.3820749
      ],
      [
        -116.2393665,
        51.3821926
      ],
      [
        -116.2389993,
        51.3823847
      ],
      [
        -116.2386767,
        51.3824714
      ],
      [
        -116.2384434,
        51.3825457
      ],
      [
        -116.2381159,
        51.3827037
      ],
      [
        -116.2376842,
        51.3829638
      ],
      [
        -116.2375403,
        51.3830661
      ],
      [
        -116.2373368,
        51.3831899
      ],
      [
        -116.2372177,
        51.3833107
      ]
    ]
  }
}
