{
  "type": "Feature",
  "properties": {
    "trailId": "cory-pass",
    "trailName": "Cory Pass Loop",
    "source": "way 264496037",
    "osmRelationId": null
  },
  "geometry": {
    "type": "LineString",
    "coordinates": [
      [
        -115.5918023,
        51.2329043
      ],
      [
        -115.5918274,
        51.2328014
      ],
      [
        -115.591796,
        51.23264
      ],
      [
        -115.5916909,
        51.232497
      ],
      [
        -115.5917037,
        51.2323125
      ],
      [
        -115.5916835,
        51.2321704
      ],
      [
        -115.5916807,
        51.2320542
      ],
      [
        -115.591774,
        51.2320088
      ],
      [
        -115.5918085,
        51.2319602
      ],
      [
        -115.591734,
        51.231866
      ],
      [
        -115.5917146,
        51.2317112
      ],
      [
        -115.5918318,
        51.2316159
      ],
      [
        -115.5918251,
        51.2314794
      ],
      [
        -115.5919031,
        51.2314419
      ],
      [
        -115.592194,
        51.231332
      ],
      [
        -115.592283,
        51.231243
      ],
      [
        -115.592371,
        51.231155
      ],
      [
        -115.592401,
        51.231137
      ],
      [
        -115.592416,
        51.231119
      ],
      [
        -115.592459,
        51.231111
      ],
      [
        -115.592563,
        51.231004
      ],
      [
        -115.5924326,
        51.2309718
      ],
      [
        -115.5921797,
        51.2308017
      ],
      [
        -115.5920324,
        51.2307723
      ],
      [
        -115.5919448,
        51.2307196
      ],
      [
        -115.5917116,
        51.2307237
      ],
      [
        -115.5914086,
        51.2306419
      ],
      [
        -115.5913295,
        51.2305698
      ],
      [
        -115.5911081,
        51.2304676
      ],
      [
        -115.5910437,
        51.2303739
      ],
      [
        -115.5909126,
        51.2303579
      ],
      [
        -115.5908002,
        51.2302903
      ],
      [
        -115.5907459,
        51.2302052
      ],
      [
        -115.5906039,
        51.2301575
      ],
      [
        -115.5904214,
        51.2301534
      ],
      [
        -115.5901434,
        51.2300595
      ],
      [
        -115.5900064,
        51.2299284
      ],
      [
        -115.5898444,
        51.2298867
      ],
      [
        -115.5897077,
        51.2298604
      ],
      [
        -115.5894717,
        51.2296924
      ],
      [
        -115.5893262,
        51.2294931
      ],
      [
        -115.5892017,
        51.2294237
      ],
      [
        -115.5889801,
        51.2293296
      ],
      [
        -115.588722,
        51.2292464
      ],
      [
        -115.5887054,
        51.2290176
      ],
      [
        -115.5886976,
        51.2288522
      ],
      [
        -115.5886282,
        51.2285763
      ],
      [
        -115.5885594,
        51.2284748
      ],
      [
        -115.5884564,
        51.2284372
      ],
      [
        -115.5884098,
        51.2283709
      ],
      [
        -115.5883272,
        51.2283253
      ],
      [
        -115.5882658,
        51.2282116
      ],
      [
        -115.5881086,
        51.2280701
      ],
      [
        -115.5878907,
        51.2279464
      ],
      [
        -115.5878256,
        51.2279188
      ],
      [
        -115.5877238,
        51.2278467
      ],
      [
        -115.5876271,
        51.2278237
      ],
      [
        -115.5875973,
        51.2277674
      ],
      [
        -115.5874704,
        51.2276937
      ],
      [
        -115.5873631,
        51.2275907
      ],
      [
        -115.5872395,
        51.2275589
      ],
      [
        -115.5871071,
        51.2273752
      ],
      [
        -115.5869303,
        51.2271883
      ],
      [
        -115.5868957,
        51.2270848
      ],
      [
        -115.5867758,
        51.2270638
      ],
      [
        -115.5866846,
        51.2269665
      ],
      [
        -115.5865324,
        51.2269839
      ],
      [
        -115.5863646,
        51.2270199
      ],
      [
        -115.5862667,
        51.2270371
      ],
      [
        -115.5861958,
        51.2270139
      ],
      [
        -115.5861511,
        51.2269525
      ],
      [
        -115.5861423,
        51.2268419
      ],
      [
        -115.586088,
        51.2268125
      ],
      [
        -115.5859167,
        51.2268253
      ],
      [
        -115.585719,
        51.2267783
      ],
      [
        -115.5856434,
        51.2267493
      ],
      [
        -115.5855851,
        51.2265683
      ],
      [
        -115.5855268,
        51.226463
      ],
      [
        -115.5852883,
        51.2263106
      ],
      [
        -115.5850974,
        51.2261341
      ],
      [
        -115.584626,
        51.2259773
      ],
      [
        -115.5843356,
        51.225902
      ],
      [
        -115.5841201,
        51.2257807
      ],
      [
        -115.5839717,
        51.2256305
      ],
      [
        -115.583808,
        51.2255607
      ],
      [
        -115.5835463,
        51.225511
      ],
      [
        -115.5834623,
        51.225456
      ],
      [
        -115.5833733,
        51.2254377
      ],
      [
        -115.5833313,
        51.2253778
      ],
      [
        -115.5831566,
        51.2253193
      ],
      [
        -115.5829743,
        51.2252244
      ],
      [
        -115.5827633,
        51.2251521
      ],
      [
        -115.5825022,
        51.2250753
      ],
      [
        -115.5823775,
        51.2250356
      ],
      [
        -115.5819835,
        51.2250117
      ],
      [
        -115.5818125,
        51.2249929
      ],
      [
        -115.58166,
        51.225018
      ],
      [
        -115.5815733,
        51.2250479
      ],
      [
        -115.5813065,
        51.2251588
      ],
      [
        -115.5809913,
        51.225252
      ],
      [
        -115.5807994,
        51.2253556
      ],
      [
        -115.580682,
        51.2254661
      ],
      [
        -115.580612,
        51.2255685
      ],
      [
        -115.5804513,
        51.2256924
      ],
      [
        -115.5800671,
        51.2258209
      ],
      [
        -115.5797926,
        51.2258898
      ],
      [
        -115.5795731,
        51.2258996
      ],
      [
        -115.5793778,
        51.225972
      ],
      [
        -115.5791831,
        51.2259744
      ],
      [
        -115.578984,
        51.2259837
      ],
      [
        -115.5786719,
        51.2260472
      ],
      [
        -115.5784751,
        51.2260462
      ],
      [
        -115.5782878,
        51.2260632
      ],
      [
        -115.5780523,
        51.2260667
      ],
      [
        -115.5778936,
        51.2260904
      ],
      [
        -115.5777564,
        51.2260759
      ],
      [
        -115.577603,
        51.226075
      ],
      [
        -115.577366,
        51.2260697
      ],
      [
        -115.5772686,
        51.2260946
      ],
      [
        -115.5771393,
        51.2260564
      ],
      [
        -115.5771267,
        51.2260565
      ],
      [
        -115.5771201,
        51.2260581
      ],
      [
        -115.5770925,
        51.2260869
      ],
      [
        -115.5770676,
        51.2261064
      ],
      [
        -115.5770466,
        51.226114
      ],
      [
        -115.5770268,
        51.2261094
      ],
      [
        -115.5769818,
        51.226082
      ],
      [
        -115.5768856,
        51.2260409
      ],
      [
        -115.5766159,
        51.2261024
      ],
      [
        -115.576497,
        51.2260492
      ],
      [
        -115.5763923,
        51.2260701
      ],
      [
        -115.576312,
        51.2260312
      ],
      [
        -115.5761178,
        51.2260864
      ],
      [
        -115.5759696,
        51.22603
      ],
      [
        -115.5758633,
        51.2260086
      ],
      [
        -115.5756802,
        51.2260446
      ],
      [
        -115.5755581,
        51.2260599
      ],
      [
        -115.5754421,
        51.2260173
      ],
      [
        -115.5753726,
        51.2260183
      ],
      [
        -115.5753218,
        51.2260362
      ],
      [
        -115.5752598,
        51.2260765
      ],
      [
        -115.5752371,
        51.2260831
      ],
      [
        -115.5752169,
        51.2260841
      ],
      [
        -115.5751251,
        51.2260576
      ],
      [
        -115.5750865,
        51.2260579
      ],
      [
        -115.5749874,
        51.2261191
      ],
      [
        -115.5747952,
        51.2261619
      ],
      [
        -115.5746766,
        51.2261828
      ],
      [
        -115.574535,
        51.226172
      ],
      [
        -115.5743904,
        51.2261604
      ],
      [
        -115.5742672,
        51.2261173
      ],
      [
        -115.5741099,
        51.2261624
      ],
      [
        -115.5738992,
        51.2260756
      ],
      [
        -115.5735763,
        51.2260536
      ],
      [
        -115.5734289,
        51.2260183
      ],
      [
        -115.5732867,
        51.2260341
      ],
      [
        -115.5732267,
        51.2261037
      ],
      [
        -115.5731374,
        51.2261224
      ],
      [
        -115.5730481,
        51.2261205
      ],
      [
        -115.5729676,
        51.2260747
      ],
      [
        -115.5728253,
        51.2261098
      ],
      [
        -115.5725964,
        51.2261251
      ],
      [
        -115.5724699,
        51.2261516
      ],
      [
        -115.5722565,
        51.2261276
      ],
      [
        -115.5718581,
        51.2260452
      ],
      [
        -115.5717284,
        51.2259656
      ],
      [
        -115.5715749,
        51.2259237
      ],
      [
        -115.5714562,
        51.2258224
      ],
      [
        -115.5713366,
        51.225748
      ],
      [
        -115.5712636,
        51.2257293
      ],
      [
        -115.5711101,
        51.2256145
      ],
      [
        -115.5710525,
        51.2254833
      ],
      [
        -115.5709883,
        51.2254018
      ],
      [
        -115.5709003,
        51.2253233
      ],
      [
        -115.5707358,
        51.2251129
      ],
      [
        -115.5706374,
        51.2250013
      ],
      [
        -115.5705945,
        51.2248954
      ],
      [
        -115.5705349,
        51.224813
      ],
      [
        -115.5704994,
        51.2247379
      ],
      [
        -115.5704491,
        51.2246891
      ],
      [
        -115.5703796,
        51.2246907
      ],
      [
        -115.5702935,
        51.2247146
      ],
      [
        -115.5701684,
        51.2247279
      ],
      [
        -115.5700289,
        51.224761
      ],
      [
        -115.5699018,
        51.2248251
      ],
      [
        -115.5697648,
        51.2248745
      ],
      [
        -115.5696664,
        51.2249084
      ],
      [
        -115.5695579,
        51.2249295
      ],
      [
        -115.5695321,
        51.2249945
      ],
      [
        -115.5695572,
        51.2250635
      ],
      [
        -115.5695365,
        51.2251984
      ],
      [
        -115.5694243,
        51.2253249
      ],
      [
        -115.5691923,
        51.2254902
      ],
      [
        -115.5690637,
        51.2255986
      ],
      [
        -115.568792,
        51.225725
      ],
      [
        -115.568574,
        51.225812
      ],
      [
        -115.568445,
        51.225837
      ],
      [
        -115.5682964,
        51.2258653
      ],
      [
        -115.5681976,
        51.2259149
      ],
      [
        -115.5682266,
        51.2259898
      ],
      [
        -115.568298,
        51.2260864
      ],
      [
        -115.5682873,
        51.226276
      ],
      [
        -115.5682331,
        51.2264848
      ],
      [
        -115.5680768,
        51.2265958
      ],
      [
        -115.5679289,
        51.2266545
      ],
      [
        -115.5677483,
        51.2268017
      ],
      [
        -115.56759,
        51.2268322
      ],
      [
        -115.5673296,
        51.2268748
      ],
      [
        -115.567267,
        51.2269076
      ],
      [
        -115.5672015,
        51.2269571
      ],
      [
        -115.5671358,
        51.2269448
      ],
      [
        -115.5670362,
        51.2270118
      ],
      [
        -115.566942,
        51.2270121
      ],
      [
        -115.5667532,
        51.2270597
      ],
      [
        -115.566666,
        51.2270556
      ],
      [
        -115.5665688,
        51.2271028
      ],
      [
        -115.5664763,
        51.2271798
      ],
      [
        -115.5664125,
        51.2271827
      ],
      [
        -115.5662996,
        51.2272466
      ],
      [
        -115.5662773,
        51.2272889
      ],
      [
        -115.566237,
        51.227294
      ],
      [
        -115.5661663,
        51.2273217
      ],
      [
        -115.5660907,
        51.2273234
      ],
      [
        -115.5660064,
        51.2273358
      ],
      [
        -115.5659217,
        51.2274014
      ],
      [
        -115.5657651,
        51.2275381
      ],
      [
        -115.5656056,
        51.2276207
      ],
      [
        -115.5655221,
        51.22768
      ],
      [
        -115.5654568,
        51.227758
      ],
      [
        -115.5653192,
        51.2278317
      ],
      [
        -115.5651264,
        51.2278713
      ],
      [
        -115.565059,
        51.227873
      ],
      [
        -115.5648517,
        51.2279696
      ],
      [
        -115.5645422,
        51.2280576
      ],
      [
        -115.5643367,
        51.2281353
      ],
      [
        -115.5642025,
        51.2282004
      ],
      [
        -115.56413,
        51.228257
      ],
      [
        -115.5639131,
        51.2283732
      ],
      [
        -115.5637799,
        51.2284781
      ],
      [
        -115.563629,
        51.2286082
      ],
      [
        -115.5635484,
        51.228612
      ],
      [
        -115.5634671,
        51.2285667
      ],
      [
        -115.5633268,
        51.2285606
      ],
      [
        -115.563251,
        51.2285118
      ],
      [
        -115.5631638,
        51.2285471
      ],
      [
        -115.5631211,
        51.2286193
      ],
      [
        -115.5630404,
        51.2286516
      ],
      [
        -115.562941,
        51.228632
      ],
      [
        -115.5629058,
        51.228677
      ],
      [
        -115.5629326,
        51.2287867
      ],
      [
        -115.5629246,
        51.2288683
      ],
      [
        -115.5628856,
        51.2289521
      ]
    ]
  }
}
