{
  "type": "Feature",
  "properties": {
    "trailId": "ha-ling",
    "trailName": "Ha Ling Peak",
    "source": "way 1187189878",
    "osmRelationId": null
  },
  "geometry": {
    "type": "LineString",
    "coordinates": [
      [
        -115.3251136,
        51.0564634
      ],
      [
        -115.3251922,
        51.0565224
      ],
      [
        -115.3253076,
        51.0565949
      ],
      [
        -115.3253773,
        51.0566589
      ],
      [
        -115.3253853,
        51.0567382
      ],
      [
        -115.3254125,
        51.0568874
      ],
      [
        -115.3254175,
        51.0569118
      ],
      [
        -115.3255007,
        51.0570349
      ],
      [
        -115.3257072,
        51.0571647
      ],
      [
        -115.3259218,
        51.0572557
      ],
      [
        -115.3259771,
        51.0573009
      ],
      [
        -115.3261605,
        51.0573906
      ],
      [
        -115.3262088,
        51.0574446
      ],
      [
        -115.3263509,
        51.0575238
      ],
      [
        -115.3265414,
        51.0575828
      ],
      [
        -115.3268123,
        51.0576317
      ],
      [
        -115.3270215,
        51.0576991
      ],
      [
        -115.3271851,
        51.0578003
      ],
      [
        -115.3273648,
        51.0578441
      ],
      [
        -115.3275365,
        51.0578728
      ],
      [
        -115.3277349,
        51.0578812
      ],
      [
        -115.3278628,
        51.0578941
      ],
      [
        -115.3280246,
        51.0579099
      ],
      [
        -115.3282633,
        51.057952
      ],
      [
        -115.3284699,
        51.0579638
      ],
      [
        -115.328663,
        51.0579571
      ],
      [
        -115.3288454,
        51.057925
      ],
      [
        -115.3291565,
        51.0578525
      ],
      [
        -115.3294596,
        51.0577851
      ],
      [
        -115.3296581,
        51.0577463
      ],
      [
        -115.3299049,
        51.0577379
      ],
      [
        -115.3300685,
        51.0578138
      ],
      [
        -115.3300872,
        51.0579132
      ],
      [
        -115.3301221,
        51.0579992
      ],
      [
        -115.3302455,
        51.0580852
      ],
      [
        -115.3303653,
        51.0581613
      ]
    ]
  }
}
