{
  "type": "Feature",
  "properties": {
    "trailId": "hoodoos-trail",
    "trailName": "Banff Hoodoos Trail",
    "source": "way 466002396",
    "osmRelationId": null
  },
  "geometry": {
    "type": "LineString",
    "coordinates": [
      [
        -115.5147497,
        51.1901973
      ],
      [
        -115.5149549,
        51.1900973
      ],
      [
        -115.5150595,
        51.1900544
      ],
      [
        -115.5153291,
        51.1899847
      ],
      [
        -115.5156295,
        51.1899233
      ],
      [
        -115.515895,
        51.1898888
      ],
      [
        -115.5165954,
        51.1898182
      ],
      [
        -115.5172898,
        51.1897813
      ],
      [
        -115.5176626,
        51.1897636
      ],
      [
        -115.5179322,
        51.1897619
      ],
      [
        -115.5184807,
        51.1897266
      ],
      [
        -115.5192988,
        51.1896552
      ],
      [
        -115.5197551,
        51.1896196
      ],
      [
        -115.519803,
        51.1896165
      ],
      [
        -115.5203381,
        51.1895686
      ],
      [
        -115.5206997,
        51.1895196
      ],
      [
        -115.5208768,
        51.1894955
      ],
      [
        -115.5209338,
        51.1894614
      ],
      [
        -115.5209977,
        51.1894486
      ],
      [
        -115.521084,
        51.1894476
      ],
      [
        -115.5211672,
        51.1894298
      ],
      [
        -115.5219267,
        51.1892673
      ],
      [
        -115.5219696,
        51.1892547
      ],
      [
        -115.5220379,
        51.1892434
      ],
      [
        -115.5221182,
        51.1892331
      ],
      [
        -115.5221795,
        51.1892205
      ],
      [
        -115.522256,
        51.1892112
      ],
      [
        -115.5223272,
        51.1892077
      ],
      [
        -115.522432,
        51.1891881
      ],
      [
        -115.5225952,
        51.1891577
      ],
      [
        -115.523073,
        51.1890954
      ],
      [
        -115.5231691,
        51.1890851
      ],
      [
        -115.5233166,
        51.1890887
      ],
      [
        -115.5235228,
        51.1890691
      ],
      [
        -115.5239586,
        51.1891321
      ],
      [
        -115.5241162,
        51.1891655
      ],
      [
        -115.5242403,
        51.1891721
      ],
      [
        -115.5243578,
        51.1891659
      ],
      [
        -115.524433,
        51.1891725
      ],
      [
        -115.5245209,
        51.1891903
      ],
      [
        -115.5245571,
        51.1891887
      ],
      [
        -115.5246136,
        51.1891784
      ],
      [
        -115.5247328,
        51.1891687
      ],
      [
        -115.5250865,
        51.1892355
      ],
      [
        -115.5255143,
        51.1893134
      ],
      [
        -115.5259588,
        51.1894216
      ],
      [
        -115.5261888,
        51.1894692
      ],
      [
        -115.5263552,
        51.1894935
      ],
      [
        -115.5264223,
        51.1895137
      ],
      [
        -115.5264642,
        51.1895384
      ],
      [
        -115.5264893,
        51.1895767
      ],
      [
        -115.5265269,
        51.1896003
      ],
      [
        -115.5265953,
        51.1896305
      ],
      [
        -115.5268058,
        51.1896927
      ],
      [
        -115.527176,
        51.1897264
      ],
      [
        -115.5275522,
        51.1897372
      ],
      [
        -115.5279511,
        51.1897675
      ],
      [
        -115.5284178,
        51.1898121
      ],
      [
        -115.5289983,
        51.1899066
      ],
      [
        -115.5291326,
        51.1899356
      ],
      [
        -115.5292572,
        51.1899327
      ],
      [
        -115.5294813,
        51.1899365
      ],
      [
        -115.5296999,
        51.1899306
      ],
      [
        -115.5297616,
        51.189923
      ],
      [
        -115.5298394,
        51.189902
      ],
      [
        -115.5299641,
        51.189844
      ],
      [
        -115.530066,
        51.1897625
      ],
      [
        -115.5300915,
        51.1897314
      ],
      [
        -115.5301492,
        51.1896911
      ],
      [
        -115.530227,
        51.1896642
      ],
      [
        -115.5303624,
        51.1896415
      ],
      [
        -115.5304603,
        51.1896507
      ],
      [
        -115.530545,
        51.1896727
      ],
      [
        -115.5306615,
        51.1897373
      ],
      [
        -115.5307956,
        51.1898264
      ],
      [
        -115.5309096,
        51.1898869
      ],
      [
        -115.5309695,
        51.1899022
      ],
      [
        -115.5310477,
        51.1898987
      ],
      [
        -115.531556,
        51.1898146
      ],
      [
        -115.5321662,
        51.1896902
      ],
      [
        -115.5322405,
        51.1896699
      ],
      [
        -115.5322829,
        51.1896499
      ],
      [
        -115.5323157,
        51.1896004
      ],
      [
        -115.5324921,
        51.189454
      ],
      [
        -115.5325941,
        51.1893666
      ],
      [
        -115.5326745,
        51.1893011
      ],
      [
        -115.5328837,
        51.1892658
      ],
      [
        -115.5331224,
        51.1891565
      ],
      [
        -115.5333719,
        51.1890842
      ],
      [
        -115.5336615,
        51.1890388
      ],
      [
        -115.5338547,
        51.1889867
      ],
      [
        -115.5339378,
        51.1889615
      ],
      [
        -115.5343401,
        51.188795
      ],
      [
        -115.5349705,
        51.1885715
      ],
      [
        -115.535236,
        51.1884992
      ],
      [
        -115.5358475,
        51.1882823
      ],
      [
        -115.5360192,
        51.1882571
      ],
      [
        -115.5362633,
        51.1881781
      ],
      [
        -115.536561,
        51.1880739
      ],
      [
        -115.5369902,
        51.1879545
      ],
      [
        -115.5375856,
        51.1877561
      ],
      [
        -115.5382642,
        51.1875762
      ],
      [
        -115.5392647,
        51.1873106
      ],
      [
        -115.5396402,
        51.1871795
      ],
      [
        -115.5401498,
        51.1870265
      ],
      [
        -115.5407453,
        51.1868365
      ],
      [
        -115.5412468,
        51.1866936
      ],
      [
        -115.5414721,
        51.1865726
      ],
      [
        -115.5417538,
        51.186465
      ],
      [
        -115.5421534,
        51.186354
      ],
      [
        -115.5424002,
        51.1862279
      ],
      [
        -115.5427033,
        51.1862212
      ],
      [
        -115.5429125,
        51.1861708
      ],
      [
        -115.5430707,
        51.1861472
      ],
      [
        -115.5431941,
        51.186075
      ],
      [
        -115.543406,
        51.1860817
      ],
      [
        -115.543626,
        51.1860716
      ],
      [
        -115.5438513,
        51.1859909
      ],
      [
        -115.5439961,
        51.1859253
      ],
      [
        -115.5441047,
        51.1859396
      ],
      [
        -115.5441759,
        51.1859211
      ],
      [
        -115.5446854,
        51.1856916
      ],
      [
        -115.5452728,
        51.1854748
      ],
      [
        -115.5456135,
        51.1853403
      ],
      [
        -115.5456671,
        51.1852579
      ],
      [
        -115.5459514,
        51.1851738
      ],
      [
        -115.5462357,
        51.1850007
      ],
      [
        -115.546402,
        51.1849284
      ],
      [
        -115.5466166,
        51.1848813
      ],
      [
        -115.546668,
        51.1848448
      ],
      [
        -115.546799,
        51.1847518
      ],
      [
        -115.5470355,
        51.1846566
      ],
      [
        -115.5473948,
        51.184663
      ],
      [
        -115.5475503,
        51.184658
      ],
      [
        -115.5476921,
        51.1846821
      ],
      [
        -115.5478438,
        51.1847191
      ]
    ]
  }
}
