{
  "type": "Feature",
  "properties": {
    "trailId": "johnson-lake",
    "trailName": "Johnson Lake",
    "source": "way 1112638273",
    "osmRelationId": null
  },
  "geometry": {
    "type": "LineString",
    "coordinates": [
      [
        -115.5303576,
        51.2131237
      ],
      [
        -115.5300359,
        51.2132028
      ],
      [
        -115.5298585,
        51.2133472
      ],
      [
        -115.5293443,
        51.2136138
      ],
      [
        -115.5286527,
        51.2137508
      ],
      [
        -115.5282921,
        51.2137323
      ],
      [
        -115.5280616,
        51.2135842
      ],
      [
        -115.5278724,
        51.2132954
      ],
      [
        -115.5274764,
        51.2121364
      ],
      [
        -115.5275236,
        51.2113106
      ],
      [
        -115.5273995,
        51.2110033
      ],
      [
        -115.5270153,
        51.2106552
      ],
      [
        -115.5268261,
        51.2103552
      ],
      [
        -115.5264596,
        51.2096146
      ],
      [
        -115.5263414,
        51.2093258
      ],
      [
        -115.5263651,
        51.2090814
      ],
      [
        -115.5264656,
        51.2088518
      ],
      [
        -115.5264419,
        51.2087555
      ],
      [
        -115.5257917,
        51.208163
      ],
      [
        -115.5254902,
        51.2080185
      ],
      [
        -115.5251651,
        51.2079408
      ],
      [
        -115.5245917,
        51.2080148
      ],
      [
        -115.524308,
        51.2080148
      ],
      [
        -115.5235927,
        51.2080862
      ],
      [
        -115.5224727,
        51.2079705
      ],
      [
        -115.5215489,
        51.2077173
      ],
      [
        -115.5210062,
        51.2072977
      ],
      [
        -115.5199324,
        51.2060317
      ],
      [
        -115.5196668,
        51.2058798
      ],
      [
        -115.5193781,
        51.205641
      ],
      [
        -115.5191126,
        51.2052793
      ],
      [
        -115.518847,
        51.2048091
      ],
      [
        -115.5185814,
        51.2046572
      ],
      [
        -115.5180503,
        51.2045559
      ],
      [
        -115.5168147,
        51.2044329
      ],
      [
        -115.5164452,
        51.2043388
      ],
      [
        -115.5147248,
        51.2038686
      ],
      [
        -115.5123808,
        51.2033187
      ],
      [
        -115.511942,
        51.2032319
      ],
      [
        -115.5113762,
        51.20342
      ],
      [
        -115.510845,
        51.2034056
      ],
      [
        -115.5089167,
        51.2029859
      ],
      [
        -115.5076235,
        51.2027617
      ],
      [
        -115.5070231,
        51.2028195
      ],
      [
        -115.5066305,
        51.2030945
      ],
      [
        -115.5062725,
        51.2031017
      ],
      [
        -115.5059492,
        51.2030511
      ],
      [
        -115.5057875,
        51.2030728
      ],
      [
        -115.505522,
        51.2034707
      ],
      [
        -115.5053488,
        51.203543
      ],
      [
        -115.5048407,
        51.2035069
      ],
      [
        -115.504656,
        51.2033983
      ],
      [
        -115.503813,
        51.2027183
      ],
      [
        -115.503559,
        51.2026749
      ],
      [
        -115.5031318,
        51.2025736
      ],
      [
        -115.5020117,
        51.2019731
      ],
      [
        -115.5017693,
        51.2018139
      ],
      [
        -115.5016276,
        51.2015831
      ],
      [
        -115.5015314,
        51.201136
      ]
    ]
  }
}
