{
  "type": "Feature",
  "properties": {
    "trailId": "johnston-canyon",
    "trailName": "Johnston Canyon to Ink Pots",
    "source": "way 436634823",
    "osmRelationId": null
  },
  "geometry": {
    "type": "LineString",
    "coordinates": [
      [
        -115.8410822,
        51.2465179
      ],
      [
        -115.8409985,
        51.2467899
      ],
      [
        -115.8409533,
        51.2468684
      ],
      [
        -115.84066,
        51.24702
      ],
      [
        -115.8402558,
        51.2471828
      ],
      [
        -115.8397944,
        51.2472851
      ],
      [
        -115.83955,
        51.24736
      ],
      [
        -115.83934,
        51.24753
      ],
      [
        -115.83877,
        51.24817
      ],
      [
        -115.8386345,
        51.248498
      ],
      [
        -115.83847,
        51.24877
      ],
      [
        -115.838167,
        51.2492032
      ],
      [
        -115.8379655,
        51.2493972
      ],
      [
        -115.8380203,
        51.2496549
      ],
      [
        -115.8380447,
        51.2497832
      ],
      [
        -115.8380196,
        51.2499022
      ],
      [
        -115.838037,
        51.2499874
      ],
      [
        -115.8380245,
        51.2500615
      ],
      [
        -115.8379941,
        51.2503017
      ],
      [
        -115.8380115,
        51.2505378
      ],
      [
        -115.8380154,
        51.2507375
      ],
      [
        -115.8379807,
        51.2508764
      ]
    ]
  }
}
