{
  "type": "Feature",
  "properties": {
    "trailId": "lake-agnes",
    "trailName": "Lake Agnes Teahouse",
    "source": "way 545984566",
    "osmRelationId": null
  },
  "geometry": {
    "type": "LineString",
    "coordinates": [
      [
        -116.304079,
        51.429532
      ],
      [
        -116.3035155,
        51.4288515
      ],
      [
        -116.3030572,
        51.4272225
      ],
      [
        -116.3035155,
        51.424717
      ],
      [
        -116.3015293,
        51.422683
      ],
      [
        -116.3002306,
        51.4202392
      ],
      [
        -116.2980076,
        51.4182812
      ],
      [
        -116.2966402,
        51.4169092
      ],
      [
        -116.2956089,
        51.4158229
      ],
      [
        -116.2945699,
        51.4161374
      ],
      [
        -116.2934546,
        51.4157943
      ],
      [
        -116.2931414,
        51.416952
      ],
      [
        -116.2956394,
        51.4213206
      ],
      [
        -116.2928511,
        51.4219256
      ],
      [
        -116.2894287,
        51.4176238
      ]
    ]
  }
}
