{
  "type": "Feature",
  "properties": {
    "trailId": "moraine-lakeshore",
    "trailName": "Moraine Lake Lakeshore",
    "source": "way 182402731",
    "osmRelationId": null
  },
  "geometry": {
    "type": "LineString",
    "coordinates": [
      [
        -116.1818493,
        51.3903415
      ],
      [
        -116.1818169,
        51.3901549
      ],
      [
        -116.1817525,
        51.3899607
      ],
      [
        -116.1816452,
        51.3898201
      ],
      [
        -116.1813234,
        51.3896394
      ],
      [
        -116.1809049,
        51.3893849
      ],
      [
        -116.180744,
        51.3892042
      ],
      [
        -116.1804972,
        51.38901
      ],
      [
        -116.1802719,
        51.388856
      ],
      [
        -116.1797569,
        51.388528
      ],
      [
        -116.1793493,
        51.388307
      ],
      [
        -116.1789094,
        51.3880057
      ],
      [
        -116.1785231,
        51.3876643
      ],
      [
        -116.1783086,
        51.3874567
      ],
      [
        -116.1779438,
        51.3872626
      ],
      [
        -116.1774824,
        51.3869345
      ],
      [
        -116.1772571,
        51.3867403
      ],
      [
        -116.1769996,
        51.3865729
      ],
      [
        -116.1767314,
        51.3864591
      ],
      [
        -116.1764203,
        51.3862315
      ],
      [
        -116.1759911,
        51.3859369
      ],
      [
        -116.1757551,
        51.385736
      ],
      [
        -116.1755942,
        51.3854883
      ],
      [
        -116.1754654,
        51.3852204
      ],
      [
        -116.175165,
        51.3849995
      ],
      [
        -116.1749933,
        51.3847249
      ],
      [
        -116.1747466,
        51.3844236
      ],
      [
        -116.174532,
        51.3842295
      ],
      [
        -116.1740707,
        51.3838478
      ],
      [
        -116.1737059,
        51.3836402
      ],
      [
        -116.1733626,
        51.3833992
      ],
      [
        -116.1729978,
        51.3831849
      ],
      [
        -116.1728047,
        51.3830041
      ],
      [
        -116.1726008,
        51.3827564
      ],
      [
        -116.1724184,
        51.3825689
      ],
      [
        -116.1721609,
        51.3824082
      ],
      [
        -116.1718283,
        51.382147
      ],
      [
        -116.1716674,
        51.3819193
      ],
      [
        -116.1714314,
        51.3817252
      ],
      [
        -116.1713348,
        51.3816046
      ],
      [
        -116.1710237,
        51.3814104
      ],
      [
        -116.1708949,
        51.3811962
      ],
      [
        -116.1707018,
        51.3808613
      ],
      [
        -116.1704443,
        51.3805667
      ],
      [
        -116.1700903,
        51.3801716
      ],
      [
        -116.1699186,
        51.3799038
      ],
      [
        -116.1698006,
        51.3797163
      ],
      [
        -116.169586,
        51.3795355
      ],
      [
        -116.1693607,
        51.379348
      ],
      [
        -116.169071,
        51.3791872
      ],
      [
        -116.1689208,
        51.3790399
      ],
      [
        -116.1688243,
        51.3787921
      ],
      [
        -116.1686848,
        51.378685
      ],
      [
        -116.1684273,
        51.3785845
      ],
      [
        -116.1682556,
        51.3785645
      ],
      [
        -116.1679767,
        51.378397
      ],
      [
        -116.1677621,
        51.3782229
      ],
      [
        -116.1675904,
        51.3780689
      ],
      [
        -116.1675368,
        51.3779283
      ],
      [
        -116.1673544,
        51.3778546
      ],
      [
        -116.1672471,
        51.3777341
      ],
      [
        -116.1672042,
        51.3776001
      ],
      [
        -116.1670004,
        51.3773925
      ],
      [
        -116.1668072,
        51.3771715
      ],
      [
        -116.1666463,
        51.3769572
      ],
      [
        -116.1664854,
        51.3768099
      ],
      [
        -116.1662708,
        51.3766023
      ],
      [
        -116.1659704,
        51.3763612
      ],
      [
        -116.1657987,
        51.3762005
      ],
      [
        -116.1655305,
        51.3759862
      ],
      [
        -116.1652086,
        51.3757183
      ],
      [
        -116.165037,
        51.375591
      ],
      [
        -116.1648761,
        51.3755107
      ],
      [
        -116.1647258,
        51.3753767
      ],
      [
        -116.1645435,
        51.3752026
      ],
      [
        -116.1641679,
        51.3748611
      ],
      [
        -116.1640177,
        51.3747539
      ],
      [
        -116.1639105,
        51.374486
      ],
      [
        -116.1637281,
        51.3741779
      ],
      [
        -116.1635135,
        51.3739636
      ],
      [
        -116.1632882,
        51.373689
      ],
      [
        -116.1631273,
        51.3733676
      ],
      [
        -116.1629878,
        51.3730528
      ],
      [
        -116.1628805,
        51.3728586
      ],
      [
        -116.1626552,
        51.3726509
      ],
      [
        -116.1624835,
        51.3724969
      ],
      [
        -116.1622046,
        51.372383
      ],
      [
        -116.1621295,
        51.3723228
      ],
      [
        -116.162108,
        51.3722223
      ],
      [
        -116.1621509,
        51.3721218
      ],
      [
        -116.1622582,
        51.3719611
      ],
      [
        -116.1622904,
        51.3718606
      ],
      [
        -116.1620436,
        51.3718472
      ],
      [
        -116.1618183,
        51.3718472
      ],
      [
        -116.1615716,
        51.3718472
      ],
      [
        -116.1614965,
        51.3717803
      ],
      [
        -116.1614536,
        51.3714923
      ],
      [
        -116.1614536,
        51.3713382
      ],
      [
        -116.1613141,
        51.371144
      ],
      [
        -116.1610351,
        51.3708828
      ],
      [
        -116.1607991,
        51.3707019
      ],
      [
        -116.1605201,
        51.3704876
      ],
      [
        -116.1603163,
        51.3702733
      ],
      [
        -116.1600481,
        51.3700388
      ],
      [
        -116.1598228,
        51.3698446
      ],
      [
        -116.1596618,
        51.3697039
      ],
      [
        -116.1596726,
        51.3695499
      ],
      [
        -116.1597369,
        51.3694293
      ],
      [
        -116.1597048,
        51.3693289
      ],
      [
        -116.1595546,
        51.3692016
      ],
      [
        -116.1593829,
        51.3691011
      ],
      [
        -116.1592005,
        51.3690341
      ],
      [
        -116.1590825,
        51.3689739
      ],
      [
        -116.1589537,
        51.3688198
      ],
      [
        -116.1587499,
        51.3686925
      ],
      [
        -116.1586533,
        51.3685452
      ],
      [
        -116.1585031,
        51.3683777
      ],
      [
        -116.1583529,
        51.3682639
      ],
      [
        -116.1582778,
        51.3681232
      ],
      [
        -116.1582671,
        51.3679357
      ],
      [
        -116.15831,
        51.3677749
      ],
      [
        -116.1583744,
        51.3676677
      ],
      [
        -116.1584924,
        51.3675673
      ],
      [
        -116.1585568,
        51.3673998
      ],
      [
        -116.1584173,
        51.3672524
      ],
      [
        -116.1581383,
        51.367018
      ],
      [
        -116.1580311,
        51.3668237
      ],
      [
        -116.1579774,
        51.3666295
      ],
      [
        -116.1580203,
        51.3664486
      ],
      [
        -116.1581169,
        51.3662946
      ],
      [
        -116.1581383,
        51.366174
      ],
      [
        -116.1581383,
        51.3660065
      ],
      [
        -116.1581705,
        51.3658927
      ],
      [
        -116.1582242,
        51.3657252
      ],
      [
        -116.1581705,
        51.365484
      ],
      [
        -116.1581491,
        51.3653032
      ],
      [
        -116.1582456,
        51.3651022
      ],
      [
        -116.1583851,
        51.3649683
      ],
      [
        -116.158707,
        51.3648142
      ],
      [
        -116.1589108,
        51.3647204
      ],
      [
        -116.1591147,
        51.3646802
      ],
      [
        -116.1593614,
        51.3645998
      ],
      [
        -116.1595867,
        51.3644726
      ],
      [
        -116.1597691,
        51.3643654
      ],
      [
        -116.1599301,
        51.3643051
      ],
      [
        -116.160327,
        51.3641242
      ],
      [
        -116.1606274,
        51.3639367
      ],
      [
        -116.1608206,
        51.3638161
      ],
      [
        -116.1610459,
        51.3636888
      ],
      [
        -116.161475,
        51.3634543
      ],
      [
        -116.161711,
        51.3632668
      ],
      [
        -116.1619364,
        51.363039
      ],
      [
        -116.1620544,
        51.3627711
      ],
      [
        -116.1622368,
        51.3624763
      ],
      [
        -116.1624299,
        51.3621547
      ],
      [
        -116.1625908,
        51.3619203
      ],
      [
        -116.1626702,
        51.361863
      ],
      [
        -116.1628054,
        51.3616858
      ],
      [
        -116.1628912,
        51.3613978
      ],
      [
        -116.1629878,
        51.3610896
      ],
      [
        -116.163138,
        51.3607546
      ],
      [
        -116.1632453,
        51.3605135
      ],
      [
        -116.1632667,
        51.3603996
      ],
      [
        -116.1634277,
        51.3602924
      ],
      [
        -116.1636208,
        51.3600646
      ],
      [
        -116.1636389,
        51.3600021
      ],
      [
        -116.1637019,
        51.3599133
      ],
      [
        -116.1638153,
        51.3598007
      ],
      [
        -116.1639306,
        51.3596822
      ],
      [
        -116.1640412,
        51.3595381
      ],
      [
        -116.1641572,
        51.3594159
      ],
      [
        -116.1643611,
        51.3592132
      ],
      [
        -116.1645032,
        51.3591244
      ],
      [
        -116.1645763,
        51.3590302
      ],
      [
        -116.1646441,
        51.35898
      ],
      [
        -116.1647741,
        51.358828
      ],
      [
        -116.1649733,
        51.3586132
      ],
      [
        -116.1653139,
        51.3583372
      ],
      [
        -116.1656143,
        51.3581354
      ],
      [
        -116.1661052,
        51.3577728
      ],
      [
        -116.1662983,
        51.3575936
      ],
      [
        -116.1666336,
        51.3572712
      ],
      [
        -116.1668522,
        51.3570216
      ],
      [
        -116.167044,
        51.3568507
      ],
      [
        -116.1673055,
        51.3565618
      ],
      [
        -116.1674932,
        51.3563918
      ],
      [
        -116.167732,
        51.3561247
      ],
      [
        -116.1678231,
        51.3560074
      ],
      [
        -116.1681356,
        51.3556649
      ],
      [
        -116.1683663,
        51.3554697
      ],
      [
        -116.1685983,
        51.3553014
      ],
      [
        -116.168837,
        51.3552093
      ],
      [
        -116.1689939,
        51.3551163
      ],
      [
        -116.1692125,
        51.3550267
      ],
      [
        -116.1694499,
        51.3548784
      ],
      [
        -116.1696631,
        51.3546666
      ],
      [
        -116.1700641,
        51.3542637
      ],
      [
        -116.1703739,
        51.3539764
      ],
      [
        -116.1705295,
        51.3537913
      ],
      [
        -116.1706743,
        51.3536062
      ],
      [
        -116.1707213,
        51.3535049
      ],
      [
        -116.1708661,
        51.3532553
      ],
      [
        -116.1709721,
        51.3531406
      ],
      [
        -116.1712094,
        51.3527947
      ],
      [
        -116.1712376,
        51.3527176
      ],
      [
        -116.1714441,
        51.3525752
      ],
      [
        -116.1715219,
        51.3524605
      ],
      [
        -116.171593,
        51.3523818
      ],
      [
        -116.1718089,
        51.3521405
      ],
      [
        -116.1720034,
        51.3519621
      ],
      [
        -116.1720972,
        51.3518231
      ],
      [
        -116.1722582,
        51.3517025
      ],
      [
        -116.1724795,
        51.3515325
      ],
      [
        -116.1726163,
        51.3513666
      ],
      [
        -116.1727209,
        51.3511296
      ],
      [
        -116.1727517,
        51.3509545
      ],
      [
        -116.1728684,
        51.3506379
      ],
      [
        -116.1731366,
        51.3504026
      ],
      [
        -116.1733767,
        51.3502392
      ],
      [
        -116.1734987,
        51.3500533
      ],
      [
        -116.1735926,
        51.3498581
      ],
      [
        -116.173728,
        51.3497383
      ],
      [
        -116.173897,
        51.3495474
      ],
      [
        -116.1739319,
        51.34941
      ],
      [
        -116.1739641,
        51.3493086
      ],
      [
        -116.1740325,
        51.3491235
      ],
      [
        -116.1740754,
        51.3489568
      ],
      [
        -116.1741679,
        51.3487709
      ],
      [
        -116.1741424,
        51.3486327
      ],
      [
        -116.1741786,
        51.3484936
      ],
      [
        -116.1742283,
        51.3482616
      ],
      [
        -116.174247,
        51.3481125
      ],
      [
        -116.1743315,
        51.3479969
      ],
      [
        -116.1744563,
        51.3477649
      ],
      [
        -116.17453,
        51.3476527
      ],
      [
        -116.1746762,
        51.3475781
      ],
      [
        -116.1748184,
        51.3475203
      ],
      [
        -116.1748666,
        51.3473704
      ],
      [
        -116.1747446,
        51.3471986
      ],
      [
        -116.174707,
        51.3469658
      ],
      [
        -116.1747875,
        51.3468527
      ],
      [
        -116.1750302,
        51.3467781
      ],
      [
        -116.1750785,
        51.3466567
      ],
      [
        -116.1751764,
        51.3465009
      ],
      [
        -116.1752582,
        51.346402
      ],
      [
        -116.1752837,
        51.3462588
      ],
      [
        -116.175395,
        51.3459891
      ],
      [
        -116.1754996,
        51.3458048
      ],
      [
        -116.1754902,
        51.3456272
      ],
      [
        -116.1754728,
        51.3454228
      ],
      [
        -116.1754353,
        51.3452837
      ],
      [
        -116.1755251,
        51.3451455
      ],
      [
        -116.1756217,
        51.3449972
      ],
      [
        -116.1757102,
        51.3448171
      ],
      [
        -116.1757504,
        51.3446906
      ],
      [
        -116.1758081,
        51.3445834
      ],
      [
        -116.1758644,
        51.344307
      ],
      [
        -116.1759315,
        51.3441218
      ],
      [
        -116.176075,
        51.3438446
      ],
      [
        -116.1761997,
        51.3435983
      ],
      [
        -116.1762587,
        51.3433738
      ],
      [
        -116.1764102,
        51.3431342
      ],
      [
        -116.1765511,
        51.3428644
      ],
      [
        -116.1766195,
        51.342696
      ],
      [
        -116.1768059,
        51.3423878
      ],
      [
        -116.1769561,
        51.3421741
      ],
      [
        -116.1770017,
        51.3420325
      ],
      [
        -116.1771237,
        51.3418407
      ],
      [
        -116.1772203,
        51.3416505
      ],
      [
        -116.1772525,
        51.3415207
      ],
      [
        -116.1774174,
        51.3413297
      ],
      [
        -116.1775086,
        51.341199
      ],
      [
        -116.1776414,
        51.3409636
      ],
      [
        -116.1777634,
        51.3407692
      ],
      [
        -116.1778935,
        51.3405539
      ],
      [
        -116.1779257,
        51.3403671
      ],
      [
        -116.177927,
        51.3402096
      ],
      [
        -116.1779887,
        51.3400186
      ],
      [
        -116.1781188,
        51.3397999
      ],
      [
        -116.1781336,
        51.3396684
      ],
      [
        -116.1783736,
        51.3393961
      ],
      [
        -116.1784943,
        51.3391841
      ],
      [
        -116.1786593,
        51.3388934
      ],
      [
        -116.1787773,
        51.3386136
      ],
      [
        -116.178847,
        51.3384024
      ],
      [
        -116.1789194,
        51.3381888
      ],
      [
        -116.1789114,
        51.3379928
      ],
      [
        -116.1790267,
        51.3377389
      ],
      [
        -116.1791233,
        51.3375655
      ],
      [
        -116.1792976,
        51.3372538
      ],
      [
        -116.1793701,
        51.3370988
      ],
      [
        -116.1795203,
        51.3369052
      ],
      [
        -116.1796195,
        51.3367268
      ],
      [
        -116.1797053,
        51.3366589
      ],
      [
        -116.1797308,
        51.3365433
      ],
      [
        -116.1798515,
        51.3363288
      ],
      [
        -116.1798931,
        51.3361562
      ],
      [
        -116.1800674,
        51.3358454
      ],
      [
        -116.1801519,
        51.335718
      ],
      [
        -116.1803088,
        51.3354114
      ],
      [
        -116.1804188,
        51.335289
      ],
      [
        -116.1805717,
        51.3350661
      ],
      [
        -116.1806374,
        51.3349304
      ],
      [
        -116.1807541,
        51.3348315
      ],
      [
        -116.1807822,
        51.3347578
      ],
      [
        -116.1808842,
        51.3346698
      ],
      [
        -116.1810974,
        51.3343271
      ],
      [
        -116.1812101,
        51.3341989
      ],
      [
        -116.1813173,
        51.3338856
      ],
      [
        -116.1814957,
        51.3336677
      ],
      [
        -116.1817545,
        51.3333376
      ],
      [
        -116.1818283,
        51.3331976
      ],
      [
        -116.1818498,
        51.3331013
      ],
      [
        -116.1819624,
        51.3329203
      ],
      [
        -116.182063,
        51.3328591
      ],
      [
        -116.1822025,
        51.332498
      ],
      [
        -116.1824707,
        51.332069
      ],
      [
        -116.1825592,
        51.3319491
      ],
      [
        -116.1826692,
        51.3317028
      ],
      [
        -116.1827751,
        51.3315168
      ],
      [
        -116.1829079,
        51.3313676
      ],
      [
        -116.1829092,
        51.3312151
      ],
      [
        -116.1830004,
        51.331035
      ],
      [
        -116.1830594,
        51.330885
      ],
      [
        -116.1831144,
        51.3307509
      ],
      [
        -116.1831547,
        51.3304593
      ],
      [
        -116.1831775,
        51.3302649
      ],
      [
        -116.1832298,
        51.3300889
      ],
      [
        -116.1832499,
        51.32998
      ],
      [
        -116.1832512,
        51.3298635
      ],
      [
        -116.1832968,
        51.3296339
      ],
      [
        -116.1832941,
        51.3294068
      ],
      [
        -116.1832847,
        51.3290892
      ],
      [
        -116.1833277,
        51.328971
      ],
      [
        -116.1832324,
        51.3287641
      ],
      [
        -116.1829977,
        51.3287096
      ],
      [
        -116.1827671,
        51.3286518
      ],
      [
        -116.1825914,
        51.3285579
      ],
      [
        -116.1823715,
        51.3284749
      ],
      [
        -116.1821059,
        51.3285135
      ],
      [
        -116.1817814,
        51.328526
      ]
    ]
  }
}
