{
  "type": "Feature",
  "properties": {
    "trailId": "plain-of-six-glaciers",
    "trailName": "Plain of Six Glaciers",
    "source": "way 613989340",
    "osmRelationId": null
  },
  "geometry": {
    "type": "LineString",
    "coordinates": [
      [
        -116.2161552,
        51.4167985
      ],
      [
        -116.2168451,
        51.4165491
      ],
      [
        -116.2169717,
        51.4165271
      ],
      [
        -116.2170871,
        51.4165265
      ],
      [
        -116.2172346,
        51.4165422
      ],
      [
        -116.2174197,
        51.4165991
      ],
      [
        -116.2175931,
        51.4166512
      ],
      [
        -116.2176362,
        51.4166658
      ],
      [
        -116.2177097,
        51.4166907
      ],
      [
        -116.2178287,
        51.4167496
      ],
      [
        -116.2182222,
        51.4170631
      ],
      [
        -116.2183557,
        51.4171486
      ],
      [
        -116.2184641,
        51.4171974
      ],
      [
        -116.2185958,
        51.4172431
      ],
      [
        -116.2187243,
        51.4172892
      ],
      [
        -116.2188815,
        51.4173309
      ],
      [
        -116.2189928,
        51.4173501
      ],
      [
        -116.2191322,
        51.4173652
      ],
      [
        -116.219238,
        51.4173699
      ],
      [
        -116.2200845,
        51.4174075
      ],
      [
        -116.2211417,
        51.4174067
      ],
      [
        -116.2213725,
        51.4174052
      ],
      [
        -116.2215509,
        51.4174189
      ],
      [
        -116.2216143,
        51.4174361
      ],
      [
        -116.2219271,
        51.4173894
      ],
      [
        -116.2220706,
        51.4173894
      ],
      [
        -116.2224508,
        51.4174038
      ],
      [
        -116.2225896,
        51.4173994
      ],
      [
        -116.2226903,
        51.4173824
      ]
    ]
  }
}
