{
  "type": "Feature",
  "properties": {
    "trailId": "vermilion-lakes",
    "trailName": "Vermilion Lakes",
    "source": "way 24836629",
    "osmRelationId": null
  },
  "geometry": {
    "type": "LineString",
    "coordinates": [
      [
        -115.5594373,
        51.1495246
      ],
      [
        -115.5594805,
        51.1494727
      ],
      [
        -115.5595784,
        51.1493945
      ],
      [
        -115.5596803,
        51.1493347
      ],
      [
        -115.559734,
        51.1493103
      ],
      [
        -115.5597854,
        51.1493055
      ],
      [
        -115.5598466,
        51.1493095
      ],
      [
        -115.5598828,
        51.1493229
      ],
      [
        -115.5599187,
        51.1493602
      ],
      [
        -115.5600035,
        51.1495358
      ],
      [
        -115.5600679,
        51.1496308
      ],
      [
        -115.5601389,
        51.1496804
      ],
      [
        -115.5602851,
        51.1498552
      ],
      [
        -115.5603026,
        51.1498336
      ],
      [
        -115.5602463,
        51.1496056
      ],
      [
        -115.5602503,
        51.1495551
      ],
      [
        -115.5602604,
        51.1495273
      ],
      [
        -115.5602972,
        51.1494954
      ],
      [
        -115.5603622,
        51.1494452
      ],
      [
        -115.560497,
        51.1493642
      ],
      [
        -115.5606459,
        51.1492952
      ],
      [
        -115.5606996,
        51.1492531
      ],
      [
        -115.5607698,
        51.1492155
      ],
      [
        -115.560787,
        51.1491885
      ],
      [
        -115.5607961,
        51.1491353
      ],
      [
        -115.5608015,
        51.1490554
      ],
      [
        -115.5607827,
        51.1489965
      ],
      [
        -115.5607504,
        51.1489579
      ],
      [
        -115.5607197,
        51.1489343
      ],
      [
        -115.5606392,
        51.1488914
      ],
      [
        -115.5606218,
        51.1488745
      ],
      [
        -115.5606218,
        51.1488573
      ],
      [
        -115.5606325,
        51.1488468
      ],
      [
        -115.5606439,
        51.1488419
      ],
      [
        -115.5606627,
        51.1488388
      ],
      [
        -115.5606841,
        51.1488422
      ],
      [
        -115.5608712,
        51.1489385
      ],
      [
        -115.5609812,
        51.148989
      ],
      [
        -115.561067,
        51.1490159
      ],
      [
        -115.5612099,
        51.1490332
      ],
      [
        -115.5612803,
        51.149068
      ],
      [
        -115.5613326,
        51.1491042
      ],
      [
        -115.56135,
        51.1491505
      ],
      [
        -115.5613513,
        51.1492111
      ],
      [
        -115.5613607,
        51.1492641
      ],
      [
        -115.5615422,
        51.1494152
      ],
      [
        -115.5621017,
        51.1497271
      ],
      [
        -115.5626011,
        51.150104
      ],
      [
        -115.5629418,
        51.1502682
      ],
      [
        -115.5634247,
        51.1505394
      ],
      [
        -115.5636272,
        51.1506504
      ],
      [
        -115.5637452,
        51.1507472
      ],
      [
        -115.5638466,
        51.1508109
      ],
      [
        -115.563992,
        51.1508809
      ],
      [
        -115.5640899,
        51.1509087
      ],
      [
        -115.5642054,
        51.1509607
      ],
      [
        -115.5642622,
        51.1509882
      ],
      [
        -115.5643547,
        51.1510063
      ],
      [
        -115.5644352,
        51.1510168
      ],
      [
        -115.5645134,
        51.1510252
      ],
      [
        -115.5645552,
        51.1510206
      ],
      [
        -115.5645603,
        51.1510142
      ],
      [
        -115.5645599,
        51.1510033
      ],
      [
        -115.5645479,
        51.1509911
      ],
      [
        -115.5645,
        51.15097
      ],
      [
        -115.5644171,
        51.1509318
      ],
      [
        -115.5643782,
        51.1509091
      ],
      [
        -115.5643621,
        51.1508868
      ],
      [
        -115.5643494,
        51.1508263
      ],
      [
        -115.5643366,
        51.1508069
      ],
      [
        -115.5643205,
        51.1507939
      ],
      [
        -115.5641985,
        51.1506988
      ],
      [
        -115.564159,
        51.150594
      ],
      [
        -115.5639025,
        51.1502299
      ],
      [
        -115.5638538,
        51.1500157
      ],
      [
        -115.563823,
        51.1499648
      ],
      [
        -115.563772,
        51.1498256
      ],
      [
        -115.5637358,
        51.1496783
      ],
      [
        -115.5637083,
        51.1495274
      ],
      [
        -115.5636832,
        51.1493739
      ],
      [
        -115.5636386,
        51.1491349
      ],
      [
        -115.5636461,
        51.1488842
      ],
      [
        -115.5635775,
        51.1485568
      ],
      [
        -115.5635568,
        51.148322
      ],
      [
        -115.5636044,
        51.148268
      ],
      [
        -115.5636741,
        51.1482162
      ],
      [
        -115.5637268,
        51.1481809
      ],
      [
        -115.5637492,
        51.1481515
      ],
      [
        -115.5637566,
        51.1481233
      ],
      [
        -115.5637452,
        51.1480804
      ],
      [
        -115.5637425,
        51.1480593
      ],
      [
        -115.5637593,
        51.1480459
      ],
      [
        -115.5637841,
        51.1480413
      ],
      [
        -115.5638056,
        51.1480492
      ],
      [
        -115.5638357,
        51.1480825
      ],
      [
        -115.5638525,
        51.1481195
      ],
      [
        -115.5638552,
        51.1481452
      ],
      [
        -115.563827,
        51.1482007
      ],
      [
        -115.5637901,
        51.148281
      ],
      [
        -115.56381,
        51.14839
      ],
      [
        -115.5642727,
        51.1488704
      ],
      [
        -115.5649819,
        51.1496198
      ],
      [
        -115.5651739,
        51.1498109
      ],
      [
        -115.565411,
        51.1498439
      ],
      [
        -115.5653059,
        51.1494569
      ],
      [
        -115.565241,
        51.149004
      ],
      [
        -115.5651342,
        51.1486281
      ],
      [
        -115.5650682,
        51.1482337
      ],
      [
        -115.5650977,
        51.1478985
      ],
      [
        -115.565256,
        51.1476502
      ],
      [
        -115.5653154,
        51.1474358
      ],
      [
        -115.5652878,
        51.1471271
      ],
      [
        -115.5650736,
        51.1468607
      ],
      [
        -115.5648,
        51.14651
      ],
      [
        -115.564689,
        51.1463579
      ],
      [
        -115.5644926,
        51.1460029
      ],
      [
        -115.5643969,
        51.1457071
      ],
      [
        -115.5645582,
        51.1458156
      ],
      [
        -115.5648709,
        51.1460046
      ],
      [
        -115.5655622,
        51.1464015
      ],
      [
        -115.565607,
        51.1463976
      ],
      [
        -115.5656369,
        51.1463773
      ],
      [
        -115.5655875,
        51.1462782
      ],
      [
        -115.5653686,
        51.1459972
      ],
      [
        -115.5651777,
        51.1457471
      ],
      [
        -115.565116,
        51.1455274
      ],
      [
        -115.5650708,
        51.1452814
      ],
      [
        -115.565213,
        51.1448894
      ],
      [
        -115.5654152,
        51.1445024
      ],
      [
        -115.5657331,
        51.1442504
      ],
      [
        -115.5657044,
        51.1443684
      ],
      [
        -115.5656808,
        51.1446174
      ],
      [
        -115.5658026,
        51.1450219
      ],
      [
        -115.5661138,
        51.14552
      ],
      [
        -115.5663679,
        51.1457159
      ],
      [
        -115.5668471,
        51.1460089
      ],
      [
        -115.5671385,
        51.1461524
      ],
      [
        -115.5674581,
        51.1462503
      ],
      [
        -115.5671267,
        51.146015
      ],
      [
        -115.566919,
        51.1458192
      ],
      [
        -115.566715,
        51.1455491
      ],
      [
        -115.5666588,
        51.1454042
      ],
      [
        -115.5665569,
        51.1450509
      ],
      [
        -115.5666102,
        51.1446968
      ],
      [
        -115.5667091,
        51.1446783
      ],
      [
        -115.5667848,
        51.1449893
      ],
      [
        -115.5669317,
        51.1451899
      ],
      [
        -115.567114,
        51.14537
      ],
      [
        -115.567344,
        51.14556
      ],
      [
        -115.5675932,
        51.1457307
      ],
      [
        -115.5679286,
        51.1458348
      ],
      [
        -115.5679452,
        51.1458112
      ],
      [
        -115.56777,
        51.14569
      ],
      [
        -115.5674972,
        51.145482
      ],
      [
        -115.5673515,
        51.1450857
      ],
      [
        -115.5673926,
        51.1450418
      ],
      [
        -115.5674533,
        51.1450495
      ],
      [
        -115.56789,
        51.14539
      ],
      [
        -115.5681839,
        51.1455082
      ],
      [
        -115.567884,
        51.1451717
      ],
      [
        -115.5677869,
        51.1449502
      ],
      [
        -115.5678159,
        51.1448052
      ],
      [
        -115.5678877,
        51.1448322
      ],
      [
        -115.5679326,
        51.1448991
      ],
      [
        -115.5681195,
        51.1451656
      ],
      [
        -115.5681576,
        51.1450391
      ],
      [
        -115.5680737,
        51.1448653
      ],
      [
        -115.5680857,
        51.1446144
      ],
      [
        -115.5681533,
        51.1446332
      ],
      [
        -115.5683475,
        51.144931
      ],
      [
        -115.5684402,
        51.1449392
      ],
      [
        -115.5683931,
        51.1448314
      ],
      [
        -115.5683046,
        51.1446275
      ],
      [
        -115.5683014,
        51.1444525
      ],
      [
        -115.56862,
        51.14372
      ],
      [
        -115.568689,
        51.1436919
      ],
      [
        -115.56875,
        51.14372
      ],
      [
        -115.56871,
        51.14397
      ],
      [
        -115.56875,
        51.14427
      ],
      [
        -115.56901,
        51.14462
      ],
      [
        -115.56914,
        51.14471
      ],
      [
        -115.56926,
        51.14471
      ],
      [
        -115.5691457,
        51.1445938
      ],
      [
        -115.5691468,
        51.1443737
      ],
      [
        -115.5692139,
        51.1441762
      ],
      [
        -115.5695303,
        51.1438311
      ],
      [
        -115.5696076,
        51.1437888
      ],
      [
        -115.5696498,
        51.1438313
      ],
      [
        -115.56961,
        51.14414
      ],
      [
        -115.56974,
        51.1444
      ],
      [
        -115.57025,
        51.14471
      ],
      [
        -115.570224,
        51.1446137
      ],
      [
        -115.5701269,
        51.1443404
      ],
      [
        -115.5702234,
        51.1440476
      ],
      [
        -115.5704289,
        51.1438965
      ],
      [
        -115.5708768,
        51.1439103
      ],
      [
        -115.5712893,
        51.1437538
      ],
      [
        -115.5714658,
        51.1436034
      ],
      [
        -115.5718,
        51.14333
      ],
      [
        -115.57218,
        51.1432
      ],
      [
        -115.57241,
        51.14299
      ],
      [
        -115.5727,
        51.14281
      ],
      [
        -115.5723435,
        51.1438455
      ],
      [
        -115.5723412,
        51.1440683
      ],
      [
        -115.5724063,
        51.1442131
      ],
      [
        -115.5724611,
        51.1440948
      ],
      [
        -115.5727072,
        51.1437471
      ],
      [
        -115.5730617,
        51.143391
      ],
      [
        -115.5734024,
        51.1431053
      ],
      [
        -115.5735065,
        51.1430672
      ],
      [
        -115.573595,
        51.143045
      ],
      [
        -115.57326,
        51.14372
      ],
      [
        -115.5731186,
        51.1441607
      ],
      [
        -115.57321,
        51.14436
      ],
      [
        -115.5735134,
        51.1447453
      ],
      [
        -115.57364,
        51.14505
      ],
      [
        -115.57373,
        51.14517
      ],
      [
        -115.5736931,
        51.1447352
      ],
      [
        -115.5738047,
        51.1443737
      ],
      [
        -115.57403,
        51.14406
      ],
      [
        -115.5741214,
        51.144006
      ],
      [
        -115.57416,
        51.14402
      ],
      [
        -115.5741384,
        51.1445439
      ],
      [
        -115.5743771,
        51.1448637
      ],
      [
        -115.5744226,
        51.1446028
      ],
      [
        -115.5744164,
        51.1445022
      ],
      [
        -115.5744392,
        51.1444055
      ],
      [
        -115.5745194,
        51.1442569
      ],
      [
        -115.5747126,
        51.1440437
      ],
      [
        -115.5747584,
        51.1441379
      ],
      [
        -115.5747952,
        51.1442317
      ],
      [
        -115.5748207,
        51.1442785
      ],
      [
        -115.574911,
        51.144328
      ]
    ]
  }
}
